ONEWEB-0656             
1 55817U 23029X   25362.29677567  .00000109  00000+0  23573-3 0  9991
2 55817  87.9220 308.5112 0001981  92.0088 268.1272 13.20772103138592
ONEWEB-0657             
1 55818U 23029Y   25362.48518519 -.00000004  00000+0 -42453-4 0  9999
2 55818  87.9200 338.9473 0001387 109.0050 251.1233 13.19727712136395
ONEWEB-0658             
1 55819U 23029Z   25362.32882241  .00000024  00000+0  28062-4 0  9999
2 55819  87.9218 338.9348 0001596  70.6670 289.4635 13.19726877136389
ONEWEB-0660             
1 55820U 23029AA  25362.39445759 -.00000083  00000+0 -25714-3 0  9994
2 55820  87.9010 323.7217 0002024  74.6859 285.4494 13.14501353136966
ONEWEB-0661             
1 55821U 23029AB  25362.35323420  .00000320  00000+0  82799-3 0  9999
2 55821  87.9001 323.7939 0002084  77.3117 282.8245 13.14501433136943
ONEWEB-0662             
1 55822U 23029AC  25362.46424131 -.00000162  00000+0 -47149-3 0  9999
2 55822  87.9002 323.7784 0002023  74.6154 285.5199 13.14502277137000
ONEWEB-0663             
1 55823U 23029AD  25362.41833683  .00000188  00000+0  43108-3 0  9998
2 55823  87.9229 308.5544 0001942  65.8174 294.3163 13.20855115138605
ONEWEB-0664             
1 55824U 23029AE  25362.28414735  .00000119  00000+0  26044-3 0  9991
2 55824  87.9212 308.5847 0002195  82.3675 277.7707 13.20771494138588
