<?xml version="1.0" encoding="UTF-8"?>
<ndm xmlns:xsi="http://www.w3.org/2001/XMLSchema-instance" xsi:noNamespaceSchemaLocation="https://sanaregistry.org/r/ndmxml_unqualified/ndmxml-2.0.0-master-2.0.xsd">
<omm id="CCSDS_OMM_VERS" version="2.0">
<header><CREATION_DATE/><ORIGINATOR/></header><body><segment><metadata><OBJECT_NAME>ONEWEB-0656</OBJECT_NAME><OBJECT_ID>2023-029X</OBJECT_ID><CENTER_NAME>EARTH</CENTER_NAME><REF_FRAME>TEME</REF_FRAME><TIME_SYSTEM>UTC</TIME_SYSTEM><MEAN_ELEMENT_THEORY>SGP4</MEAN_ELEMENT_THEORY></metadata><data><meanElements><EPOCH>2025-12-28T07:07:21.417888</EPOCH><MEAN_MOTION>13.20772103</MEAN_MOTION><ECCENTRICITY>.0001981</ECCENTRICITY><INCLINATION>87.9220</INCLINATION><RA_OF_ASC_NODE>308.5112</RA_OF_ASC_NODE><ARG_OF_PERICENTER>92.0088</ARG_OF_PERICENTER><MEAN_ANOMALY>268.1272</MEAN_ANOMALY></meanElements><tleParameters><EPHEMERIS_TYPE>0</EPHEMERIS_TYPE><CLASSIFICATION_TYPE>U</CLASSIFICATION_TYPE><NORAD_CAT_ID>55817</NORAD_CAT_ID><ELEMENT_SET_NO>999</ELEMENT_SET_NO><REV_AT_EPOCH>13859</REV_AT_EPOCH><BSTAR>.23573E-3</BSTAR><MEAN_MOTION_DOT>.109E-5</MEAN_MOTION_DOT><MEAN_MOTION_DDOT>0</MEAN_MOTION_DDOT></tleParameters></data></segment></body></omm>
<omm id="CCSDS_OMM_VERS" version="2.0">
<header><CREATION_DATE/><ORIGINATOR/></header><body><segment><metadata><OBJECT_NAME>ONEWEB-0657</OBJECT_NAME><OBJECT_ID>2023-029Y</OBJECT_ID><CENTER_NAME>EARTH</CENTER_NAME><REF_FRAME>TEME</REF_FRAME><TIME_SYSTEM>UTC</TIME_SYSTEM><MEAN_ELEMENT_THEORY>SGP4</MEAN_ELEMENT_THEORY></metadata><data><meanElements><EPOCH>2025-12-28T11:38:40.000416</EPOCH><MEAN_MOTION>13.19727712</MEAN_MOTION><ECCENTRICITY>.0001387</ECCENTRICITY><INCLINATION>87.9200</INCLINATION><RA_OF_ASC_NODE>338.9473</RA_OF_ASC_NODE><ARG_OF_PERICENTER>109.0050</ARG_OF_PERICENTER><MEAN_ANOMALY>251.1233</MEAN_ANOMALY></meanElements><tleParameters><EPHEMERIS_TYPE>0</EPHEMERIS_TYPE><CLASSIFICATION_TYPE>U</CLASSIFICATION_TYPE><NORAD_CAT_ID>55818</NORAD_CAT_ID><ELEMENT_SET_NO>999</ELEMENT_SET_NO><REV_AT_EPOCH>13639</REV_AT_EPOCH><BSTAR>-.42453E-4</BSTAR><MEAN_MOTION_DOT>-.4E-7</MEAN_MOTION_DOT><MEAN_MOTION_DDOT>0</MEAN_MOTION_DDOT></tleParameters></data></segment></body></omm>
<omm id="CCSDS_OMM_VERS" version="2.0">
<header><CREATION_DATE/><ORIGINATOR/></header><body><segment><metadata><OBJECT_NAME>ONEWEB-0658</OBJECT_NAME><OBJECT_ID>2023-029Z</OBJECT_ID><CENTER_NAME>EARTH</CENTER_NAME><REF_FRAME>TEME</REF_FRAME><TIME_SYSTEM>UTC</TIME_SYSTEM><MEAN_ELEMENT_THEORY>SGP4</MEAN_ELEMENT_THEORY></metadata><data><meanElements><EPOCH>2025-12-28T07:53:30.256224</EPOCH><MEAN_MOTION>13.19726877</MEAN_MOTION><ECCENTRICITY>.0001596</ECCENTRICITY><INCLINATION>87.9218</INCLINATION><RA_OF_ASC_NODE>338.9348</RA_OF_ASC_NODE><ARG_OF_PERICENTER>70.6670</ARG_OF_PERICENTER><MEAN_ANOMALY>289.4635</MEAN_ANOMALY></meanElements><tleParameters><EPHEMERIS_TYPE>0</EPHEMERIS_TYPE><CLASSIFICATION_TYPE>U</CLASSIFICATION_TYPE><NORAD_CAT_ID>55819</NORAD_CAT_ID><ELEMENT_SET_NO>999</ELEMENT_SET_NO><REV_AT_EPOCH>13638</REV_AT_EPOCH><BSTAR>.28062E-4</BSTAR><MEAN_MOTION_DOT>.24E-6</MEAN_MOTION_DOT><MEAN_MOTION_DDOT>0</MEAN_MOTION_DDOT></tleParameters></data></segment></body></omm>
<omm id="CCSDS_OMM_VERS" version="2.0">
<header><CREATION_DATE/><ORIGINATOR/></header><body><segment><metadata><OBJECT_NAME>ONEWEB-0660</OBJECT_NAME><OBJECT_ID>2023-029AA</OBJECT_ID><CENTER_NAME>EARTH</CENTER_NAME><REF_FRAME>TEME</REF_FRAME><TIME_SYSTEM>UTC</TIME_SYSTEM><MEAN_ELEMENT_THEORY>SGP4</MEAN_ELEMENT_THEORY></metadata><data><meanElements><EPOCH>2025-12-28T09:28:01.135776</EPOCH><MEAN_MOTION>13.14501353</MEAN_MOTION><ECCENTRICITY>.0002024</ECCENTRICITY><INCLINATION>87.9010</INCLINATION><RA_OF_ASC_NODE>323.7217</RA_OF_ASC_NODE><ARG_OF_PERICENTER>74.6859</ARG_OF_PERICENTER><MEAN_ANOMALY>285.4494</MEAN_ANOMALY></meanElements><tleParameters><EPHEMERIS_TYPE>0</EPHEMERIS_TYPE><CLASSIFICATION_TYPE>U</CLASSIFICATION_TYPE><NORAD_CAT_ID>55820</NORAD_CAT_ID><ELEMENT_SET_NO>999</ELEMENT_SET_NO><REV_AT_EPOCH>13696</REV_AT_EPOCH><BSTAR>-.25714E-3</BSTAR><MEAN_MOTION_DOT>-.83E-6</MEAN_MOTION_DOT><MEAN_MOTION_DDOT>0</MEAN_MOTION_DDOT></tleParameters></data></segment></body></omm>
<omm id="CCSDS_OMM_VERS" version="2.0">
<header><CREATION_DATE/><ORIGINATOR/></header><body><segment><metadata><OBJECT_NAME>ONEWEB-0661</OBJECT_NAME><OBJECT_ID>2023-029AB</OBJECT_ID><CENTER_NAME>EARTH</CENTER_NAME><REF_FRAME>TEME</REF_FRAME><TIME_SYSTEM>UTC</TIME_SYSTEM><MEAN_ELEMENT_THEORY>SGP4</MEAN_ELEMENT_THEORY></metadata><data><meanElements><EPOCH>2025-12-28T08:28:39.434880</EPOCH><MEAN_MOTION>13.14501433</MEAN_MOTION><ECCENTRICITY>.0002084</ECCENTRICITY><INCLINATION>87.9001</INCLINATION><RA_OF_ASC_NODE>323.7939</RA_OF_ASC_NODE><ARG_OF_PERICENTER>77.3117</ARG_OF_PERICENTER><MEAN_ANOMALY>282.8245</MEAN_ANOMALY></meanElements><tleParameters><EPHEMERIS_TYPE>0</EPHEMERIS_TYPE><CLASSIFICATION_TYPE>U</CLASSIFICATION_TYPE><NORAD_CAT_ID>55821</NORAD_CAT_ID><ELEMENT_SET_NO>999</ELEMENT_SET_NO><REV_AT_EPOCH>13694</REV_AT_EPOCH><BSTAR>.82799E-3</BSTAR><MEAN_MOTION_DOT>.32E-5</MEAN_MOTION_DOT><MEAN_MOTION_DDOT>0</MEAN_MOTION_DDOT></tleParameters></data></segment></body></omm>
<omm id="CCSDS_OMM_VERS" version="2.0">
<header><CREATION_DATE/><ORIGINATOR/></header><body><segment><metadata><OBJECT_NAME>ONEWEB-0662</OBJECT_NAME><OBJECT_ID>2023-029AC</OBJECT_ID><CENTER_NAME>EARTH</CENTER_NAME><REF_FRAME>TEME</REF_FRAME><TIME_SYSTEM>UTC</TIME_SYSTEM><MEAN_ELEMENT_THEORY>SGP4</MEAN_ELEMENT_THEORY></metadata><data><meanElements><EPOCH>2025-12-28T11:08:30.449184</EPOCH><MEAN_MOTION>13.14502277</MEAN_MOTION><ECCENTRICITY>.0002023</ECCENTRICITY><INCLINATION>87.9002</INCLINATION><RA_OF_ASC_NODE>323.7784</RA_OF_ASC_NODE><ARG_OF_PERICENTER>74.6154</ARG_OF_PERICENTER><MEAN_ANOMALY>285.5199</MEAN_ANOMALY></meanElements><tleParameters><EPHEMERIS_TYPE>0</EPHEMERIS_TYPE><CLASSIFICATION_TYPE>U</CLASSIFICATION_TYPE><NORAD_CAT_ID>55822</NORAD_CAT_ID><ELEMENT_SET_NO>999</ELEMENT_SET_NO><REV_AT_EPOCH>13700</REV_AT_EPOCH><BSTAR>-.47149E-3</BSTAR><MEAN_MOTION_DOT>-.162E-5</MEAN_MOTION_DOT><MEAN_MOTION_DDOT>0</MEAN_MOTION_DDOT></tleParameters></data></segment></body></omm>
<omm id="CCSDS_OMM_VERS" version="2.0">
<header><CREATION_DATE/><ORIGINATOR/></header><body><segment><metadata><OBJECT_NAME>ONEWEB-0663</OBJECT_NAME><OBJECT_ID>2023-029AD</OBJECT_ID><CENTER_NAME>EARTH</CENTER_NAME><REF_FRAME>TEME</REF_FRAME><TIME_SYSTEM>UTC</TIME_SYSTEM><MEAN_ELEMENT_THEORY>SGP4</MEAN_ELEMENT_THEORY></metadata><data><meanElements><EPOCH>2025-12-28T10:02:24.302112</EPOCH><MEAN_MOTION>13.20855115</MEAN_MOTION><ECCENTRICITY>.0001942</ECCENTRICITY><INCLINATION>87.9229</INCLINATION><RA_OF_ASC_NODE>308.5544</RA_OF_ASC_NODE><ARG_OF_PERICENTER>65.8174</ARG_OF_PERICENTER><MEAN_ANOMALY>294.3163</MEAN_ANOMALY></meanElements><tleParameters><EPHEMERIS_TYPE>0</EPHEMERIS_TYPE><CLASSIFICATION_TYPE>U</CLASSIFICATION_TYPE><NORAD_CAT_ID>55823</NORAD_CAT_ID><ELEMENT_SET_NO>999</ELEMENT_SET_NO><REV_AT_EPOCH>13860</REV_AT_EPOCH><BSTAR>.43108E-3</BSTAR><MEAN_MOTION_DOT>.188E-5</MEAN_MOTION_DOT><MEAN_MOTION_DDOT>0</MEAN_MOTION_DDOT></tleParameters></data></segment></body></omm>
<omm id="CCSDS_OMM_VERS" version="2.0">
<header><CREATION_DATE/><ORIGINATOR/></header><body><segment><metadata><OBJECT_NAME>ONEWEB-0664</OBJECT_NAME><OBJECT_ID>2023-029AE</OBJECT_ID><CENTER_NAME>EARTH</CENTER_NAME><REF_FRAME>TEME</REF_FRAME><TIME_SYSTEM>UTC</TIME_SYSTEM><MEAN_ELEMENT_THEORY>SGP4</MEAN_ELEMENT_THEORY></metadata><data><meanElements><EPOCH>2025-12-28T06:49:10.331040</EPOCH><MEAN_MOTION>13.20771494</MEAN_MOTION><ECCENTRICITY>.0002195</ECCENTRICITY><INCLINATION>87.9212</INCLINATION><RA_OF_ASC_NODE>308.5847</RA_OF_ASC_NODE><ARG_OF_PERICENTER>82.3675</ARG_OF_PERICENTER><MEAN_ANOMALY>277.7707</MEAN_ANOMALY></meanElements><tleParameters><EPHEMERIS_TYPE>0</EPHEMERIS_TYPE><CLASSIFICATION_TYPE>U</CLASSIFICATION_TYPE><NORAD_CAT_ID>55824</NORAD_CAT_ID><ELEMENT_SET_NO>999</ELEMENT_SET_NO><REV_AT_EPOCH>13858</REV_AT_EPOCH><BSTAR>.26044E-3</BSTAR><MEAN_MOTION_DOT>.119E-5</MEAN_MOTION_DOT><MEAN_MOTION_DDOT>0</MEAN_MOTION_DDOT></tleParameters></data></segment></body></omm>

</ndm>
